<?xml version="1.0" encoding="UTF-8"?>
<kml xmlns="http://www.opengis.net/kml/2.2"><Document>
<name>Фанские горы — кольцо Чимтарги (06–16.09.2026)</name>
<Style id="day3"><LineStyle><color>ff00c832</color><width>5</width></LineStyle></Style>
<Style id="day4"><LineStyle><color>ff00d7ff</color><width>5</width></LineStyle></Style>
<Style id="day5"><LineStyle><color>ff0078ff</color><width>5</width></LineStyle></Style>
<Style id="day6"><LineStyle><color>ffc850a0</color><width>5</width></LineStyle></Style>
<Style id="day7"><LineStyle><color>ff3352db</color><width>5</width></LineStyle></Style>
<Style id="day9"><LineStyle><color>ffd79a00</color><width>5</width></LineStyle></Style>
<Style id="day10"><LineStyle><color>ffd05000</color><width>5</width></LineStyle></Style>
<Folder><name>Маршрут по дням</name>
<Placemark><name>День 3 (08.09): Артуч → Куликалон · 11.1 км</name><styleUrl>#day3</styleUrl><LineString><tessellate>1</tessellate><altitudeMode>clampToGround</altitudeMode><coordinates>68.110520,39.320730,1788
68.111040,39.320170,1788
68.111560,39.319610,1788
68.112080,39.319050,1788
68.112350,39.318525,1811
68.112620,39.318000,1811
68.113010,39.317560,1811
68.113210,39.317440,1811
68.113380,39.317000,1811
68.113720,39.316490,1811
68.114080,39.316110,1811
68.114440,39.315730,1811
68.114860,39.315250,1811
68.115280,39.314770,1811
68.115520,39.314530,1811
68.115920,39.313820,1811
68.116005,39.313310,1811
68.116090,39.312800,1838
68.116615,39.312285,1838
68.117140,39.311770,1838
68.117400,39.310930,1838
68.117760,39.310500,1838
68.118120,39.310070,1838
68.118470,39.309550,1838
68.118630,39.309100,1838
68.118790,39.308650,1838
68.118790,39.308040,1838
68.118947,39.307407,1838
68.119103,39.306773,1838
68.119260,39.306140,1838
68.119080,39.305665,1838
68.118900,39.305190,1895
68.118973,39.304580,1895
68.119047,39.303970,1895
68.119120,39.303360,1895
68.119270,39.302760,1895
68.119345,39.302200,1895
68.119420,39.301640,1895
68.119330,39.301190,1895
68.119460,39.300640,1895
68.119590,39.300090,1895
68.120040,39.299470,1895
68.120010,39.298800,1895
68.120160,39.298300,1895
68.119950,39.297670,1895
68.119480,39.297150,2038
68.119300,39.296680,2038
68.119335,39.296170,2038
68.119370,39.295660,2038
68.119235,39.294925,2038
68.119100,39.294190,2038
68.118775,39.293810,2038
68.118450,39.293430,2038
68.118270,39.293100,2038
68.117910,39.293060,2038
68.117860,39.292940,2038
68.117980,39.292830,2038
68.118220,39.292350,2038
68.118140,39.292030,2038
68.118190,39.291830,2038
68.118170,39.291310,2038
68.118280,39.290840,2054
68.118220,39.290270,2054
68.118380,39.290030,2054
68.118640,39.289800,2054
68.118820,39.289390,2054
68.118970,39.289350,2054
68.119250,39.288723,2054
68.119530,39.288097,2054
68.119810,39.287470,2071
68.119810,39.287050,2071
68.120025,39.286580,2071
68.120240,39.286110,2071
68.120430,39.285890,2071
68.120810,39.285710,2071
68.121020,39.285390,2071
68.121020,39.285230,2071
68.121230,39.285030,2071
68.122060,39.284750,2071
68.122570,39.284370,2071
68.122880,39.283900,2071
68.123220,39.283630,2071
68.123840,39.283350,2111
68.124010,39.283010,2111
68.124070,39.282790,2111
68.124200,39.282600,2111
68.124420,39.282430,2111
68.125140,39.282070,2111
68.125380,39.281860,2111
68.125810,39.281610,2111
68.125940,39.281610,2111
68.126140,39.281670,2111
68.126270,39.281660,2111
68.126400,39.281580,2111
68.126530,39.281430,2111
68.126780,39.281330,2111
68.127430,39.281210,2111
68.128080,39.281090,2111
68.128310,39.280980,2111
68.128840,39.280535,2111
68.129370,39.280090,2111
68.129670,39.279800,2111
68.129990,39.279560,2111
68.130450,39.279310,2111
68.131045,39.279050,2111
68.131640,39.278790,2111
68.132160,39.278480,2111
68.132340,39.278320,2149
68.132750,39.277870,2149
68.133240,39.277110,2149
68.133590,39.276610,2149
68.133810,39.276390,2149
68.133920,39.276210,2149
68.134340,39.275890,2149
68.134940,39.275590,2149
68.135470,39.275470,2149
68.136030,39.275270,2149
68.136710,39.275000,2149
68.137420,39.274940,2149
68.137920,39.274820,2149
68.138520,39.274830,2163
68.139080,39.274990,2163
68.139620,39.275060,2163
68.140590,39.275100,2163
68.141360,39.275250,2163
68.141610,39.275550,2163
68.141990,39.275690,2163
68.143070,39.275900,2163
68.143990,39.276030,2163
68.144270,39.276180,2163
68.144650,39.276250,2163
68.145690,39.276300,2231
68.146420,39.276200,2231
68.147450,39.276220,2231
68.148090,39.276390,2231
68.148730,39.276740,2231
68.149260,39.277210,2231
68.149550,39.277250,2231
68.149890,39.277190,2231
68.150170,39.277290,2231
68.150590,39.277570,2231
68.151090,39.277700,2231
68.151560,39.277530,2291
68.152200,39.277450,2291
68.152580,39.277360,2291
68.152850,39.277380,2291
68.153050,39.277350,2291
68.153260,39.277170,2291
68.153560,39.276980,2291
68.153620,39.276850,2291
68.153650,39.276730,2291
68.153890,39.276570,2294
68.154440,39.276420,2294
68.154670,39.276180,2294
68.155070,39.276350,2294
68.155290,39.276250,2294
68.155520,39.276100,2294
68.156180,39.276000,2294
68.156240,39.276110,2294
68.156390,39.276080,2294
68.156420,39.275940,2294
68.156630,39.275880,2294
68.156680,39.275690,2294
68.156510,39.275440,2294
68.156620,39.275220,2294
68.157000,39.275110,2294
68.157420,39.274725,2463
68.157840,39.274340,2463
68.158195,39.273850,2463
68.158550,39.273360,2463
68.159680,39.273190,2463
68.159740,39.273090,2463
68.159890,39.273080,2463
68.159990,39.273150,2463
68.160320,39.273070,2463
68.161000,39.272730,2463
68.161890,39.272480,2463
68.161830,39.272410,2463
68.162010,39.272390,2463
68.161960,39.272250,2463
68.162840,39.272240,2463
68.162810,39.272030,2463
68.162980,39.272000,2463
68.163700,39.272210,2463
68.164357,39.271500,2463
68.165013,39.270790,2660
68.165670,39.270080,2660
68.165720,39.269620,2660
68.165770,39.269160,2660
68.166450,39.269060,2660
68.166200,39.268850,2660
68.167040,39.268490,2660
68.167690,39.267940,2660
68.168330,39.267380,2660
68.168720,39.267300,2660
68.169060,39.266830,2660
68.169700,39.266380,2660
68.169700,39.266240,2660
68.170010,39.266030,2660
68.170310,39.266030,2660
68.170320,39.265850,2660
68.170500,39.265740,2660
68.170620,39.265750,2660
68.171120,39.265460,2660
68.171410,39.265410,2810
68.171710,39.265200,2810
68.171830,39.264710,2810
68.171830,39.264255,2810
68.171830,39.263800,2810
68.172220,39.263460,2810
68.172220,39.263350,2810
68.172310,39.263280,2810
68.172680,39.262600,2810
68.172930,39.262520,2810
68.172690,39.262440,2810
68.172910,39.262310,2810
68.173270,39.262260,2810
68.173510,39.262090,2810
68.173440,39.261940,2810
68.173920,39.261420,2810
68.174180,39.261310,2810
68.174290,39.261100,2810
68.174160,39.260470,2834
68.174470,39.260060,2834
68.174350,39.259850,2834
68.174390,39.259600,2834
68.174290,39.259290,2834
68.174090,39.259010,2834
68.173580,39.258760,2837
68.173180,39.258520,2837
68.172890,39.258440,2838</coordinates></LineString></Placemark>
<Placemark><name>День 4 (09.09): пер. Алаудин → Алауддинское оз. · 10.3 км</name><styleUrl>#day4</styleUrl><LineString><tessellate>1</tessellate><altitudeMode>clampToGround</altitudeMode><coordinates>68.172890,39.258440,2838
68.172770,39.258470,2838
68.172890,39.258440,2838
68.173180,39.258520,2837
68.173950,39.258600,2837
68.174330,39.258770,2837
68.174690,39.258810,2837
68.175170,39.258800,2837
68.176260,39.258620,2837
68.177050,39.258260,2837
68.177710,39.258310,2839
68.178405,39.258210,2839
68.179100,39.258110,2839
68.180040,39.257760,2839
68.180460,39.257690,2839
68.180640,39.257370,2839
68.181450,39.256970,2844
68.182260,39.256570,2844
68.182480,39.256160,2844
68.183540,39.256190,2844
68.183915,39.256550,2849
68.184290,39.256910,2849
68.185120,39.257350,2849
68.186040,39.257500,2849
68.186650,39.257880,2849
68.187460,39.258110,2849
68.188480,39.258280,2849
68.188860,39.258390,2849
68.189480,39.258380,2877
68.189750,39.258550,2877
68.190465,39.258625,2877
68.191180,39.258700,2877
68.191830,39.258670,2877
68.192220,39.258740,2877
68.192450,39.258750,2877
68.193300,39.258920,2877
68.193660,39.258920,2877
68.194060,39.258890,2877
68.194230,39.258920,2877
68.194700,39.258930,2877
68.194950,39.259010,2879
68.195430,39.258810,2879
68.195760,39.258360,2879
68.195730,39.258240,2879
68.196100,39.257950,2879
68.196300,39.257760,2879
68.196640,39.257530,2880
68.196980,39.256890,2880
68.197200,39.256760,2880
68.197500,39.256490,2880
68.197550,39.256360,2880
68.197620,39.256270,2880
68.197840,39.256030,2880
68.197920,39.255770,2880
68.198330,39.255060,2880
68.198440,39.254760,2880
68.198705,39.254350,2880
68.198970,39.253940,2880
68.198930,39.253400,2882
68.198745,39.252885,2882
68.198560,39.252370,2882
68.198650,39.251620,2882
68.198620,39.251140,2882
68.198490,39.250910,2882
68.198270,39.250260,2882
68.198300,39.250020,2931
68.198510,39.249700,2931
68.198610,39.249660,2931
68.198720,39.249500,2931
68.198760,39.249300,2931
68.198940,39.249220,2931
68.199000,39.249130,2943
68.199120,39.249040,2943
68.199000,39.249130,2943
68.198940,39.249220,2931
68.198760,39.249300,2931
68.198940,39.249220,2931
68.199000,39.249130,2931
68.199330,39.248890,2931
68.199610,39.248790,2931
68.199980,39.248570,2931
68.200170,39.248280,2931
68.200280,39.248200,2931
68.200450,39.248190,2931
68.200670,39.248090,2931
68.200790,39.248130,2931
68.201150,39.247970,2931
68.201410,39.247940,3092
68.201570,39.247880,3092
68.201700,39.247720,3092
68.201930,39.247690,3092
68.202170,39.247520,3092
68.202370,39.247510,3092
68.202520,39.247560,3092
68.202880,39.247520,3092
68.203410,39.247180,3092
68.203900,39.247090,3092
68.204000,39.247020,3092
68.204140,39.247010,3092
68.204310,39.247010,3092
68.204660,39.246850,3092
68.205040,39.246760,3092
68.205410,39.246810,3092
68.205970,39.246670,3092
68.206220,39.246680,3200
68.206470,39.246610,3200
68.206500,39.246660,3200
68.207250,39.246450,3200
68.207370,39.246580,3200
68.207090,39.247210,3200
68.207140,39.247840,3200
68.207320,39.247960,3200
68.207320,39.248020,3200
68.207060,39.248310,3200
68.207230,39.248480,3200
68.207850,39.248480,3200
68.207930,39.248450,3200
68.208140,39.248470,3310
68.208300,39.248450,3310
68.208430,39.248350,3310
68.208890,39.248360,3310
68.209150,39.248230,3310
68.209590,39.248180,3310
68.210450,39.248440,3310
68.210720,39.248590,3310
68.210790,39.248670,3310
68.211400,39.248750,3310
68.211920,39.248890,3310
68.212280,39.248890,3310
68.212480,39.248970,3310
68.212760,39.249000,3310
68.213140,39.249210,3310
68.213670,39.249200,3443
68.213950,39.249360,3443
68.214180,39.249370,3443
68.214650,39.249600,3443
68.215100,39.249770,3443
68.215490,39.249720,3443
68.215820,39.249750,3443
68.215880,39.249820,3443
68.216050,39.249680,3443
68.216140,39.249730,3443
68.216400,39.249630,3443
68.216740,39.249590,3443
68.217430,39.249780,3443
68.217530,39.249750,3443
68.218200,39.249920,3531
68.218430,39.249870,3531
68.218600,39.249930,3531
68.218960,39.249860,3531
68.219200,39.249740,3531
68.219300,39.249760,3531
68.219620,39.249680,3531
68.220190,39.249680,3531
68.220530,39.249730,3531
68.221400,39.249620,3531
68.221940,39.249790,3633
68.222090,39.249710,3633
68.222200,39.249760,3633
68.222850,39.249590,3633
68.223500,39.249420,3633
68.224080,39.249330,3633
68.224650,39.249390,3633
68.224850,39.249540,3633
68.225490,39.249820,3633
68.225510,39.249890,3633
68.225530,39.249890,3633
68.225660,39.249810,3633
68.225720,39.249840,3633
68.225790,39.249750,3633
68.225880,39.249800,3633
68.225910,39.249760,3633
68.225980,39.249800,3633
68.226070,39.249720,3633
68.226120,39.249750,3633
68.226240,39.249740,3633
68.226260,39.249710,3633
68.226320,39.249720,3633
68.226430,39.249570,3633
68.226580,39.249640,3633
68.226690,39.249660,3633
68.226750,39.249630,3633
68.226850,39.249650,3633
68.226910,39.249590,3633
68.227040,39.249580,3633
68.227050,39.249520,3633
68.227100,39.249510,3633
68.227120,39.249460,3633
68.227190,39.249460,3633
68.227240,39.249400,3633
68.227450,39.249300,3633
68.227620,39.249190,3633
68.227800,39.249150,3633
68.227920,39.249070,3633
68.228000,39.249070,3633
68.228090,39.249100,3633
68.228120,39.249030,3633
68.228170,39.249020,3582
68.228200,39.248970,3582
68.228260,39.248950,3582
68.228290,39.248910,3582
68.228360,39.248920,3582
68.228410,39.248840,3582
68.228620,39.248640,3582
68.228660,39.248530,3582
68.228900,39.248440,3582
68.229070,39.248150,3582
68.229330,39.247870,3582
68.229400,39.247850,3582
68.229690,39.247470,3582
68.230050,39.247110,3582
68.230110,39.246980,3582
68.230140,39.246790,3582
68.230090,39.246720,3582
68.230040,39.246580,3582
68.230140,39.246440,3582
68.230280,39.246330,3582
68.230320,39.246100,3582
68.230410,39.246050,3582
68.230510,39.245840,3582
68.230730,39.245670,3582
68.230840,39.245640,3582
68.231060,39.245710,3582
68.232170,39.245790,3582
68.232420,39.245870,3582
68.232640,39.245860,3582
68.233050,39.245960,3582
68.233290,39.245940,3582
68.233640,39.246130,3582
68.233690,39.246270,3582
68.233840,39.246440,3582
68.234060,39.246470,3582
68.234320,39.246450,3582
68.234450,39.246470,3582
68.234680,39.246560,3582
68.234810,39.246660,3582
68.234970,39.246700,3582
68.235050,39.246790,3582
68.235470,39.246930,3582
68.235670,39.246890,3582
68.235840,39.246810,3582
68.236150,39.246480,3233
68.236170,39.246320,3233
68.236390,39.246200,3233
68.236550,39.246170,3233
68.236830,39.246250,3233
68.236960,39.246410,3233
68.237080,39.246350,3233
68.237320,39.246370,3233
68.237580,39.246230,3233
68.238150,39.246090,3233
68.238440,39.245850,3233
68.238840,39.245690,3233
68.238950,39.245710,3233
68.239030,39.245700,3233
68.239420,39.245470,3233
68.239800,39.245330,3233
68.239930,39.245120,3233
68.240020,39.244900,3233
68.240230,39.244740,3233
68.240370,39.244710,3233
68.240520,39.244480,3233
68.240560,39.244070,3233
68.240760,39.243660,3174
68.240790,39.243520,3174
68.240910,39.243490,3174
68.241070,39.243400,3174
68.241270,39.243220,3174
68.241360,39.243250,3174
68.241330,39.243270,3174
68.241340,39.243370,3174
68.241390,39.243440,3174
68.241620,39.243570,3174
68.242190,39.243620,3174
68.242550,39.243730,3174
68.242840,39.243720,3174
68.243020,39.243790,3174
68.243840,39.243820,3174
68.244410,39.243740,3174
68.244490,39.243800,3174
68.244640,39.243780,3174
68.244750,39.243850,3174
68.244800,39.243800,3174
68.245140,39.243790,3174
68.245240,39.243750,3174
68.245460,39.243870,3174
68.245530,39.243790,3174
68.245690,39.243790,3174
68.245690,39.243740,3174
68.246050,39.243640,3174
68.246160,39.243560,3174
68.246550,39.243710,2928
68.246930,39.243740,2928
68.247120,39.243610,2928
68.247010,39.243410,2928
68.247230,39.243290,2928
68.247470,39.242900,2928
68.247720,39.242880,2928
68.247720,39.242720,2928
68.247840,39.242720,2928
68.247890,39.242580,2928
68.248110,39.242510,2928
68.248220,39.242330,2928
68.248320,39.242270,2928
68.248410,39.242270,2928
68.248710,39.242080,2928
68.248880,39.242110,2928
68.249070,39.241990,2928
68.249680,39.241960,2928
68.249820,39.241890,2928
68.249870,39.241760,2928
68.250080,39.241700,2928
68.250380,39.241720,2928
68.250610,39.241670,2928
68.250860,39.241750,2928
68.251040,39.241900,2928
68.251260,39.241920,2928
68.251520,39.241890,2928
68.251660,39.241790,2928
68.252030,39.241770,2928
68.252190,39.241690,2928
68.252380,39.241780,2928
68.252590,39.241670,2928
68.252660,39.241590,2928
68.252720,39.241620,2928
68.253120,39.241580,2928
68.253660,39.241470,2781
68.254220,39.241200,2781
68.254250,39.241130,2781
68.254460,39.240950,2781
68.254780,39.240870,2781
68.254920,39.240770,2781
68.254930,39.240690,2781
68.255270,39.240630,2781
68.255360,39.240560,2781
68.255350,39.240410,2781
68.255770,39.240160,2781
68.255450,39.239910,2781
68.255180,39.239530,2781
68.255110,39.239230,2781
68.255120,39.238910,2781
68.254640,39.238230,2781
68.254450,39.237660,2792
68.254260,39.237090,2792
68.253900,39.236690,2792
68.253790,39.236440,2792
68.253820,39.236070,2792
68.253960,39.235820,2792
68.254130,39.235690,2792</coordinates></LineString></Placemark>
<Placemark><name>День 5 (10.09): → Мутные озёра · 5.2 км</name><styleUrl>#day5</styleUrl><LineString><tessellate>1</tessellate><altitudeMode>clampToGround</altitudeMode><coordinates>68.254130,39.235690,2792
68.254200,39.235470,2792
68.254290,39.235390,2792
68.254360,39.235130,2792
68.254260,39.234850,2792
68.253890,39.234230,2792
68.253880,39.234060,2792
68.253750,39.233770,2792
68.253750,39.233640,2792
68.253900,39.233490,2792
68.254110,39.233100,2792
68.254080,39.232800,2792
68.254160,39.232610,2792
68.254240,39.231960,2848
68.254030,39.231680,2848
68.253660,39.231490,2848
68.253260,39.231400,2848
68.252860,39.230950,2848
68.252770,39.230950,2848
68.252460,39.230650,2848
68.252070,39.230120,2848
68.251910,39.229700,2848
68.251660,39.229610,2848
68.251660,39.229600,2848
68.251550,39.229570,2848
68.251410,39.229410,2848
68.250900,39.229070,2858
68.250550,39.228660,2858
68.250400,39.227870,2858
68.250320,39.227680,2858
68.250200,39.227550,2858
68.250090,39.227130,2858
68.249880,39.226710,2858
68.249910,39.226560,2858
68.249770,39.225680,2858
68.249460,39.225260,2858
68.249275,39.224745,2858
68.249090,39.224230,3024
68.249090,39.223990,3024
68.248820,39.223380,3024
68.248570,39.223160,3024
68.248570,39.223050,3024
68.248180,39.222240,3024
68.248110,39.222260,3024
68.247680,39.221900,3024
68.247520,39.221610,3024
68.247450,39.221320,3024
68.247360,39.221230,3024
68.247340,39.220830,3024
68.247410,39.220600,3024
68.247320,39.220170,3024
68.247420,39.219760,3024
68.247295,39.219255,3024
68.247170,39.218750,3024
68.247290,39.218100,3024
68.247410,39.217910,3024
68.247360,39.217590,3142
68.246960,39.217330,3142
68.246700,39.217080,3142
68.246620,39.216650,3142
68.246190,39.216150,3142
68.246010,39.215870,3142
68.245870,39.215810,3142
68.245780,39.215670,3142
68.245540,39.215500,3142
68.245490,39.215220,3142
68.245350,39.215060,3142
68.245480,39.214910,3142
68.245770,39.214740,3142
68.245780,39.214650,3142
68.245740,39.214190,3142
68.245550,39.213810,3237
68.245610,39.213740,3237
68.245480,39.213050,3237
68.245900,39.212800,3237
68.245970,39.212720,3237
68.245910,39.212700,3237
68.246600,39.212230,3237
68.247290,39.211760,3237
68.247253,39.211083,3237
68.247217,39.210407,3237
68.247180,39.209730,3237
68.247040,39.209330,3369
68.246820,39.209040,3369
68.246310,39.208740,3369
68.245680,39.208240,3369
68.245440,39.207860,3369
68.245160,39.207590,3369
68.245130,39.207410,3369
68.245030,39.207250,3369
68.245050,39.207030,3369
68.245000,39.207030,3369
68.244960,39.206960,3369
68.244910,39.206680,3369
68.244780,39.206540,3369
68.244700,39.206340,3369
68.244480,39.206120,3369
68.244370,39.205820,3369
68.244090,39.205550,3369
68.243920,39.205300,3369
68.243870,39.205030,3369
68.243810,39.204920,3369
68.243680,39.204830,3369
68.243580,39.204490,3369
68.243420,39.204300,3369
68.243380,39.204150,3369
68.243460,39.204140,3369
68.243400,39.204100,3369
68.243420,39.203920,3369
68.243200,39.203570,3369
68.243280,39.203340,3369
68.243200,39.203060,3369
68.243290,39.202530,3369
68.243210,39.202390,3369
68.243030,39.202320,3369
68.243090,39.202180,3369
68.243070,39.201960,3369
68.242940,39.201840,3516
68.242780,39.201170,3516
68.242420,39.200580,3516
68.242210,39.200370,3516
68.242160,39.200370,3516
68.242060,39.200230,3516
68.241280,39.199710,3516
68.241150,39.199580,3516
68.241110,39.199050,3516
68.240930,39.198560,3516
68.240427,39.198037,3516
68.239923,39.197513,3516
68.239420,39.196990,3518
68.239260,39.196760,3518
68.239210,39.196540,3518
68.238950,39.196240,3518
68.238050,39.196200,3518
68.237530,39.196240,3518
68.236620,39.196140,3518</coordinates></LineString></Placemark>
<Placemark><name>День 6 (11.09): → лагерь 4400 · 3.0 км</name><styleUrl>#day6</styleUrl><LineString><tessellate>1</tessellate><altitudeMode>clampToGround</altitudeMode><coordinates>68.236620,39.196140,3518
68.235685,39.195980,3518
68.234750,39.195820,3518
68.234410,39.195810,3518
68.233920,39.195100,3515
68.233430,39.194390,3515
68.233080,39.193648,3515
68.232730,39.192905,3515
68.232380,39.192163,3515
68.232030,39.191420,3515
68.231650,39.191025,3515
68.231270,39.190630,3515
68.231320,39.189990,3602
68.231370,39.189350,3602
68.231022,39.188604,3602
68.230674,39.187858,3602
68.230326,39.187112,3602
68.229978,39.186366,3602
68.229630,39.185620,3602
68.229032,39.184990,3602
68.228435,39.184360,3602
68.227837,39.183730,3602
68.227240,39.183100,3602
68.226293,39.182907,3922
68.225347,39.182713,3922
68.224400,39.182520,3922
68.223297,39.182737,3922
68.222193,39.182953,3922
68.221090,39.183170,3922
68.220540,39.183375,3922
68.219990,39.183580,3962
68.219600,39.183530,3962
68.219590,39.183530,3962
68.218765,39.183425,3962
68.217940,39.183320,3962
68.216940,39.183535,3962
68.215940,39.183750,4105
68.215280,39.184350,4105
68.214620,39.184950,4105</coordinates></LineString></Placemark>
<Placemark><name>День 7 (12.09): ПЕР. ЧИМТАРГА → Б. Алло · 9.3 км</name><styleUrl>#day7</styleUrl><LineString><tessellate>1</tessellate><altitudeMode>clampToGround</altitudeMode><coordinates>68.214620,39.184950,4105
68.214890,39.185675,4105
68.215160,39.186400,4105
68.214280,39.186928,4105
68.213400,39.187455,4374
68.212520,39.187983,4374
68.211640,39.188510,4374
68.210880,39.188510,4374
68.210255,39.188720,4374
68.209630,39.188930,4374
68.208690,39.188850,4374
68.207790,39.189050,4374
68.207180,39.188920,4374
68.206340,39.189260,4630
68.205500,39.189600,4630
68.204660,39.189940,4630
68.203880,39.190005,4630
68.203100,39.190070,4630
68.202470,39.190080,4630
68.201860,39.190030,4630
68.201850,39.190030,4630
68.201400,39.190000,4630
68.200980,39.190020,4630
68.200560,39.189960,4684
68.200230,39.189810,4684
68.199950,39.189710,4684
68.199145,39.189480,4684
68.198340,39.189250,4734
68.197720,39.189230,4739
68.196835,39.189725,4739
68.195950,39.190220,4739
68.194910,39.190510,4739
68.193870,39.190750,4739
68.193240,39.191060,4371
68.192970,39.191270,4371
68.192063,39.191403,4371
68.191157,39.191537,4371
68.190250,39.191670,4371
68.189130,39.191900,4371
68.188200,39.191900,4371
68.187400,39.192320,4371
68.186740,39.192450,4371
68.186105,39.192970,4181
68.185470,39.193490,4181
68.185280,39.193700,4181
68.184890,39.193730,4181
68.184560,39.193570,4181
68.184550,39.193570,4182
68.184490,39.193540,4182
68.183910,39.192850,4182
68.183400,39.192640,4182
68.182940,39.192300,4182
68.181870,39.192240,3924
68.181010,39.191870,3924
68.179980,39.192010,3924
68.179153,39.192007,3924
68.178327,39.192003,3924
68.177500,39.192000,3924
68.176683,39.192480,3924
68.175865,39.192960,3924
68.175048,39.193440,3792
68.174230,39.193920,3792
68.173555,39.194515,3792
68.172880,39.195110,3792
68.172890,39.195110,3792
68.172340,39.195610,3792
68.172340,39.196310,3737
68.172305,39.196895,3737
68.172270,39.197480,3737
68.172225,39.198075,3737
68.172180,39.198670,3737
68.171870,39.199175,3737
68.171560,39.199680,3737
68.170913,39.200376,3737
68.170267,39.201071,3737
68.169620,39.201767,3624
68.168973,39.202462,3624
68.168327,39.203158,3624
68.167680,39.203853,3624
68.167033,39.204549,3624
68.166387,39.205244,3624
68.165740,39.205940,3624
68.164901,39.206541,3624
68.164062,39.207142,3624
68.163223,39.207743,3533
68.162384,39.208344,3533
68.161545,39.208945,3533
68.160706,39.209546,3533
68.159867,39.210147,3533
68.159028,39.210748,3533
68.158189,39.211349,3533
68.157350,39.211950,3533
68.156383,39.212265,3494
68.155415,39.212580,3494
68.154448,39.212895,3494
68.153480,39.213210,3494
68.152510,39.213290,3494
68.151890,39.213395,3494
68.151270,39.213500,3494
68.150690,39.213760,3494
68.150450,39.213720,3494
68.149765,39.213695,3494
68.149080,39.213670,3494
68.148630,39.213680,3494
68.148310,39.213830,3494
68.147420,39.213900,3369
68.146560,39.213915,3369
68.145700,39.213930,3369
68.144880,39.214010,3369
68.144560,39.214210,3369
68.144075,39.214470,3369
68.143590,39.214730,3369
68.142945,39.214820,3369
68.142300,39.214910,3369
68.141830,39.215040,3369
68.141460,39.214990,3367
68.140940,39.214970,3367
68.140370,39.214920,3367
68.140090,39.214960,3367
68.139310,39.215080,3367
68.138780,39.215270,3365
68.138200,39.215540,3365
68.137910,39.215570,3365
68.136770,39.215420,3365
68.135630,39.215270,3365
68.134740,39.214860,3365
68.133850,39.214450,3253
68.133420,39.214040,3253
68.132990,39.213630,3253
68.132480,39.213520,3253
68.131850,39.213090,3253
68.131060,39.212483,3253
68.130270,39.211877,3253</coordinates></LineString></Placemark>
<Placemark><name>День 9 (14.09): Б. Алло → Зиндон · 8.0 км</name><styleUrl>#day9</styleUrl><LineString><tessellate>1</tessellate><altitudeMode>clampToGround</altitudeMode><coordinates>68.130270,39.211877,3253
68.129480,39.211270,3253
68.128690,39.211160,3253
68.127780,39.211250,3175
68.127095,39.210975,3175
68.126410,39.210700,3175
68.126270,39.210245,3175
68.126130,39.209790,3175
68.125830,39.209430,3175
68.125830,39.209420,3175
68.125300,39.208790,3165
68.125160,39.208690,3165
68.124970,39.208670,3165
68.124950,39.208570,3165
68.124750,39.208490,3165
68.124550,39.208450,3165
68.124520,39.208350,3165
68.124360,39.208280,3165
68.124200,39.208240,3165
68.124150,39.208100,3165
68.124150,39.208000,3165
68.124060,39.207950,3165
68.123990,39.207810,3165
68.123830,39.207690,3165
68.123260,39.207420,3165
68.122210,39.207490,3165
68.121080,39.207690,3165
68.120160,39.208130,3100
68.119280,39.208340,3100
68.118480,39.208310,3100
68.117850,39.208470,3100
68.117150,39.208880,3100
68.116720,39.209350,3100
68.115920,39.209580,3100
68.115110,39.209810,3100
68.114410,39.209700,3100
68.113960,39.209850,3100
68.113250,39.209860,3100
68.112500,39.210140,3100
68.112070,39.210410,3100
68.111130,39.210590,3100
68.110800,39.210510,3100
68.110300,39.210890,2954
68.109750,39.210820,2954
68.109440,39.211060,2954
68.109120,39.210970,2954
68.108780,39.211230,2954
68.108320,39.211210,2954
68.107970,39.211350,2954
68.107460,39.211350,2954
68.107200,39.211450,2954
68.107050,39.211350,2954
68.106740,39.211400,2954
68.106480,39.211320,2954
68.106230,39.211380,2954
68.106100,39.211220,2954
68.105910,39.211330,2954
68.105800,39.211240,2954
68.105580,39.211290,2954
68.105140,39.211360,2954
68.104790,39.211220,2954
68.104610,39.211300,2954
68.104370,39.211180,2954
68.104220,39.211220,2870
68.103700,39.211170,2870
68.103380,39.211220,2870
68.103150,39.211220,2870
68.102970,39.211250,2870
68.102860,39.211220,2870
68.102850,39.211220,2870
68.102540,39.211170,2870
68.102250,39.211210,2839
68.102040,39.211120,2839
68.101900,39.211230,2839
68.101650,39.211140,2839
68.101450,39.211180,2839
68.101290,39.211150,2839
68.101110,39.211230,2839
68.100910,39.211200,2839
68.100560,39.211320,2731
68.099970,39.211310,2731
68.099860,39.211250,2731
68.099600,39.211250,2731
68.099460,39.211200,2731
68.098740,39.211040,2731
68.097915,39.210835,2731
68.097090,39.210630,2731
68.096430,39.210580,2610
68.096090,39.210450,2610
68.095590,39.210300,2610
68.095190,39.210070,2610
68.094510,39.209640,2610
68.094470,39.209430,2610
68.094240,39.209370,2610
68.093620,39.209040,2602
68.093610,39.209040,2602
68.093360,39.208910,2602
68.093150,39.208850,2602
68.092950,39.208690,2602
68.092640,39.208710,2602
68.092270,39.208420,2602
68.092070,39.208420,2602
68.091620,39.208270,2602
68.091130,39.207980,2602
68.090150,39.207660,2602
68.089740,39.207270,2602
68.089075,39.206865,2541
68.088410,39.206460,2541
68.087610,39.206240,2541
68.087000,39.205920,2541
68.086810,39.205690,2541
68.086750,39.205530,2541
68.086480,39.205210,2541
68.085810,39.204970,2541
68.085220,39.204580,2541
68.084770,39.204220,2541
68.084600,39.204150,2541
68.084480,39.204050,2541
68.084280,39.203950,2541
68.084150,39.203670,2541
68.083860,39.203450,2480
68.083400,39.203280,2480
68.083260,39.203130,2480
68.083040,39.203000,2480
68.082930,39.202880,2480
68.082760,39.202630,2480
68.082350,39.202480,2480
68.082180,39.202250,2480
68.081970,39.202040,2480
68.081250,39.201690,2480
68.080720,39.201600,2480
68.080350,39.201700,2439
68.079980,39.201710,2439
68.079030,39.201480,2439
68.078920,39.201590,2442
68.078840,39.201690,2442
68.078540,39.201560,2442
68.078270,39.201340,2442
68.077630,39.201140,2442
68.076940,39.200830,2442
68.076400,39.200460,2442
68.075940,39.200310,2442
68.074880,39.200220,2442
68.074330,39.200020,2401
68.073840,39.199760,2401
68.073540,39.199480,2401
68.073310,39.199360,2401
68.072720,39.199100,2401
68.072600,39.198920,2401
68.072230,39.198550,2401
68.071790,39.198235,2401
68.071350,39.197920,2401
68.071320,39.197730,2401
68.071290,39.197700,2401
68.071080,39.197490,2401
68.070910,39.197380,2401
68.070880,39.197180,2394
68.070680,39.196900,2394
68.070410,39.196670,2394
68.070010,39.196450,2394
68.069910,39.196360,2359
68.069740,39.196140,2359
68.069710,39.195960,2359
68.069340,39.195650,2342
68.069350,39.195520,2355
68.069140,39.195490,2355
68.068770,39.195450,2355
68.068330,39.195220,2355
68.067540,39.195420,2278
68.067080,39.195480,2278
68.066500,39.195440,2278
68.066160,39.195170,2278
68.066010,39.195240,2278
68.065410,39.195540,2278
68.064630,39.195520,2278
68.065280,39.195030,2278
68.064480,39.195130,2278
68.064520,39.195020,2278
68.064280,39.195060,2278
68.064360,39.194570,2122
68.063960,39.194380,2122
68.063440,39.194430,2122
68.062855,39.194550,2122
68.062270,39.194670,2122
68.061520,39.194210,2122
68.060970,39.194110,2122
68.060480,39.194130,2122
68.060090,39.194240,2122
68.059390,39.194340,2122
68.058690,39.194440,2122
68.057990,39.194440,2122
68.057700,39.194490,2122
68.057270,39.194640,2038
68.056750,39.194880,2038
68.056250,39.195250,2038
68.055750,39.195620,2038
68.054960,39.195670,2038</coordinates></LineString></Placemark>
<Placemark><name>День 10 (15.09): Зиндон → Арчамайдан → Газза · 9.4 км</name><styleUrl>#day10</styleUrl><LineString><tessellate>1</tessellate><altitudeMode>clampToGround</altitudeMode><coordinates>68.054960,39.195670,2038
68.054340,39.195790,2038
68.054030,39.195990,2038
68.053780,39.196060,2038
68.053670,39.195980,2038
68.053640,39.195890,2038
68.053580,39.195810,2038
68.053460,39.195810,2036
68.053450,39.195810,2036
68.053390,39.195810,2036
68.052780,39.196070,2020
68.052500,39.196370,2020
68.052190,39.196600,2018
68.051890,39.196730,2018
68.051850,39.196700,2018
68.051500,39.196740,2018
68.051090,39.197090,2018
68.050450,39.197370,1999
68.050320,39.197550,1999
68.050460,39.197660,2003
68.050480,39.197770,2003
68.050300,39.197950,2003
68.050000,39.198190,2003
68.049700,39.198310,2003
68.049310,39.198400,2003
68.049190,39.198460,2003
68.049200,39.198640,2003
68.049310,39.198870,2003
68.049140,39.199060,2003
68.049050,39.199130,2003
68.048790,39.199030,2003
68.048640,39.199120,2003
68.048560,39.199200,2003
68.048390,39.199250,2003
68.048360,39.199210,2003
68.048430,39.199090,2003
68.048400,39.199010,2003
68.048270,39.198990,2003
68.047970,39.199040,2003
68.047970,39.199140,2003
68.047910,39.199180,2003
68.047770,39.199180,2003
68.047670,39.199230,2003
68.047590,39.199350,2003
68.047240,39.199500,2003
68.046650,39.199600,1895
68.046080,39.199580,1895
68.045760,39.199590,1895
68.045080,39.199750,1895
68.044050,39.199650,1895
68.043920,39.199490,1895
68.043810,39.199420,1895
68.043630,39.199500,1895
68.043160,39.199480,1895
68.043000,39.199440,1895
68.042620,39.199260,1895
68.042410,39.199110,1895
68.041830,39.198920,1895
68.041700,39.198930,1895
68.041100,39.198890,1895
68.040930,39.198930,1895
68.040610,39.198830,1895
68.039940,39.198770,1895
68.039530,39.198870,1895
68.039150,39.198810,1895
68.038760,39.198890,1895
68.038390,39.198920,1895
68.037720,39.198880,1895
68.037500,39.198930,1865
68.037400,39.198910,1865
68.037250,39.198940,1865
68.037120,39.198880,1865
68.036820,39.198860,1865
68.036420,39.198910,1865
68.035730,39.199070,1865
68.035040,39.199230,1865
68.034660,39.199220,1865
68.034430,39.199250,1865
68.034200,39.199450,1865
68.033800,39.199500,1865
68.033640,39.199560,1865
68.033430,39.199650,1864
68.033170,39.199780,1864
68.032580,39.199920,1864
68.031960,39.199990,1853
68.031680,39.200060,1853
68.031110,39.200280,1853
68.030210,39.200370,1853
68.029605,39.200370,1853
68.029000,39.200370,1862
68.028460,39.200420,1862
68.028320,39.200390,1862
68.028300,39.200330,1869
68.028200,39.200330,1869
68.028140,39.200310,1869
68.028000,39.200310,1869
68.027690,39.200450,1851
68.027640,39.200490,1839
68.027350,39.200580,1839
68.027220,39.200730,1839
68.027390,39.200950,1839
68.027390,39.201100,1839
68.027540,39.201290,1839
68.027555,39.201825,1839
68.027570,39.202360,1839
68.027280,39.202970,1839
68.027100,39.203140,1806
68.027060,39.203610,1806
68.026910,39.203970,1806
68.026890,39.204350,1806
68.026680,39.204950,1806
68.026500,39.205120,1806
68.026390,39.205400,1806
68.026270,39.205550,1806
68.026130,39.205600,1806
68.026060,39.205580,1806
68.025970,39.205510,1806
68.025930,39.205500,1806
68.025800,39.205580,1809
68.025760,39.205650,1809
68.025520,39.206210,1816
68.025260,39.206755,1816
68.025000,39.207300,1816
68.024530,39.207755,1816
68.024060,39.208210,1816
68.023180,39.208590,1816
68.022650,39.209090,1789
68.022190,39.209720,1789
68.021760,39.210095,1789
68.021330,39.210470,1789
68.021185,39.211160,1789
68.021040,39.211850,1789
68.021150,39.211830,1789
68.021040,39.211850,1789
68.021080,39.212290,1789
68.020970,39.212880,1789
68.021085,39.213515,1791
68.021200,39.214150,1791
68.021020,39.214400,1791
68.020715,39.214825,1791
68.020410,39.215250,1791
68.020010,39.215650,1791
68.019760,39.215840,1791
68.019940,39.216320,1795
68.020010,39.217075,1795
68.020080,39.217830,1795
68.020280,39.217870,1790
68.020300,39.218430,1790
68.020070,39.219070,1790
68.019780,39.219730,1790
68.019370,39.220540,1790
68.019305,39.221075,1790
68.019240,39.221610,1790
68.019310,39.222000,1790
68.019210,39.222410,1744
68.019140,39.223070,1744
68.019460,39.223715,1744
68.019780,39.224360,1744
68.020010,39.224970,1744
68.020610,39.225490,1744
68.021270,39.225870,1744
68.021630,39.226120,1744
68.021850,39.226330,1744
68.022340,39.226510,1744
68.022750,39.226720,1749
68.023120,39.227310,1749
68.023480,39.227675,1749
68.023840,39.228040,1749
68.024125,39.228455,1749
68.024410,39.228870,1749
68.024840,39.229260,1749
68.024890,39.229620,1731
68.025110,39.229850,1731
68.025370,39.230380,1731
68.025440,39.230950,1731
68.025340,39.231490,1731
68.025290,39.231820,1731
68.025090,39.232150,1731
68.025010,39.232520,1731
68.024950,39.233010,1731
68.024950,39.233380,1731
68.024990,39.234190,1715
68.025143,39.234810,1715
68.025297,39.235430,1715
68.025450,39.236050,1715
68.025380,39.236860,1715
68.025830,39.237570,1715
68.025890,39.237940,1715
68.026250,39.238680,1715
68.026400,39.239280,1715
68.026730,39.239720,1701
68.027030,39.240460,1701
68.027410,39.241240,1701
68.027810,39.241720,1701
68.028020,39.242350,1701
68.028100,39.242800,1701
68.028410,39.243020,1701
68.029030,39.243160,1701
68.029480,39.243540,1701
68.029770,39.243960,1701
68.030110,39.244100,1696
68.030420,39.244330,1696
68.030890,39.244860,1696
68.031160,39.245385,1696
68.031430,39.245910,1696
68.032060,39.246620,1696
68.032575,39.247035,1696
68.033090,39.247450,1696
68.033650,39.247830,1696
68.034180,39.248160,1687
68.034710,39.248490,1687
68.035430,39.248810,1687
68.036110,39.249090,1687
68.036665,39.249475,1687
68.037220,39.249860,1687
68.037430,39.250410,1687
68.037390,39.250760,1687
68.037420,39.250830,1687
68.037420,39.250820,1687
68.037590,39.251220,1687
68.037640,39.251540,1687</coordinates></LineString></Placemark>
</Folder><Folder><name>Точки: лагеря, вода, чайханы, спасатели, сходы</name>
<Placemark><name>СТАРТ: Альплагерь/турбаза Артуч · 2160 м</name><description>АТБ «Артуч»: медпункт, склад спасателей, магазин, столовая, связь TCELL. Тел. +992 928886888. Здесь же оформляют регистрацию. Дорога на Пенджикент — главный аварийный выход первой трети маршрута.</description><Point><coordinates>68.136646,39.273161,0</coordinates></Point></Placemark>
<Placemark><name>Куликалон · кемп · 2850 м</name><description>День 3. Вода: озеро и ручьи (кипятить/фильтр).</description><Point><coordinates>68.17232,39.255083,0</coordinates></Point></Placemark>
<Placemark><name>Чайхана у оз. Кулисиёх</name><description>Сезонная (лето — начало сентября): чай, лепёшка. По пути дня 4.</description><Point><coordinates>68.194783,39.258913,0</coordinates></Point></Placemark>
<Placemark><name>Чайхана у оз. Бибиджонат</name><description>Сезонная. По пути дня 4.</description><Point><coordinates>68.196075,39.255329,0</coordinates></Point></Placemark>
<Placemark><name>Оз. Душаха · вода</name><description>Последний надёжный источник воды перед перевалом Алаудин.</description><Point><coordinates>68.200324,39.24051,0</coordinates></Point></Placemark>
<Placemark><name>ПЕРЕВАЛ Алаудин · 3860 м (GPS)</name><description>День 4. Быть на седловине до 13:00.</description><Point><coordinates>68.227661,39.249124,0</coordinates></Point></Placemark>
<Placemark><name>Алауддинское оз. · кемп · 2820 м</name><description>День 4. Вода: озеро/ручьи. Рядом чайхана и лагерь «Вертикаль-Алаудин».</description><Point><coordinates>68.254673,39.236111,0</coordinates></Point></Placemark>
<Placemark><name>Чайхана + лагерь «Вертикаль-Алаудин»</name><description>Стационарный лагерь (альпинисты МГУ, нач. 1990-х): жильё, еда, помощь, связь — запасная точка помощи дней 4–5.</description><Point><coordinates>68.255787,39.239415,0</coordinates></Point></Placemark>
<Placemark><name>Мутные оз. · кемп · 3520 м</name><description>День 5. Вода: ледниковые ручьи (набирать днём, к вечеру мелеют).</description><Point><coordinates>68.236988,39.196035,0</coordinates></Point></Placemark>
<Placemark><name>Лагерь под Чимтаргой · 4105 м</name><description>День 6. Вода — талый снег/фирн. Самая холодная ночёвка (−8…−14 °C). Верхняя стоянка 4500 м: 39.1891, 68.2051.</description><Point><coordinates>68.214653,39.184915,0</coordinates></Point></Placemark>
<Placemark><name>ПЕРЕВАЛ ЧИМТАРГА · 4740 м</name><description>День 7, ключевая точка. Выход 5:00–6:00. Кошки при снеге.</description><Point><coordinates>68.19772,39.189245,0</coordinates></Point></Placemark>
<Placemark><name>Большое Алло · кемп · 3160 м</name><description>Дни 7–8. Вода: озеро и ручьи. Днёвка, радиалка на Верхнее Алло.</description><Point><coordinates>68.13206,39.210294,0</coordinates></Point></Placemark>
<Placemark><name>Малое Алло · вода</name><description>День 9. Родники и ручьи выше по тропе — чище, чем Зиндон.</description><Point><coordinates>68.073545,39.199041,0</coordinates></Point></Placemark>
<Placemark><name>Зиндон · кемп на реке · ~2370 м</name><description>День 9. Вода: только притоки-ручьи + кипячение (Зиндон мутный, пастбища). Осторожно: пастушьи собаки.</description><Point><coordinates>68.05496,39.19567,0</coordinates></Point></Placemark>
<Placemark><name>ФИНИШ: с. Газза · 1700 м</name><description>День 10–11. Дорога на Пенджикент — аварийный выход последней трети. Вода, еда, связь (ТCELL/Megafon).</description><Point><coordinates>68.038276,39.251351,0</coordinates></Point></Placemark>
<Placemark><name>Спасатели/медпункт: АТБ «Артуч»</name><description>Медпункт, склад спасателей, транспорт (3–40 мест), связь TCELL. Тел. +992 928886888, +992 927307939.</description><Point><coordinates>68.136646,39.273161,0</coordinates></Point></Placemark>
<Placemark><name>Запасная точка помощи: «Вертикаль-Алаудин»</name><description>Стационарный лагерь у Алауддинских озёр: люди, еда, радиосвязь в сезон.</description><Point><coordinates>68.255787,39.239415,0</coordinates></Point></Placemark>
<Placemark><name>Ближайший госпиталь: Пенджикент</name><description>Центральная больница Пенджикента. Экстренные номера РТ: полиция 02, скорая 03, МЧС 112/н112.</description><Point><coordinates>68.2403,39.4947,0</coordinates></Point></Placemark>
<Placemark><name>СХОД: Артуч → дорога</name><description>Дни 2–4: сход по дороге вниз к трассе Пенджикент–Айни.</description><Point><coordinates>68.136646,39.273161,0</coordinates></Point></Placemark>
<Placemark><name>СХОД: Алауддинское ущелье → тракт</name><description>Дни 4–6: вниз по долине Чапдары к трассе Пенджикент–Айни (тропа вдоль реки, ~15–18 км до дороги).</description><Point><coordinates>68.254673,39.236111,0</coordinates></Point></Placemark>
<Placemark><name>СХОД: Газза → дорога</name><description>Дни 9–11: дорога по Арчамайдану до Пенджикента. После перевала Чимтарга — единственный разумный выход.</description><Point><coordinates>68.038276,39.251351,0</coordinates></Point></Placemark>
<Folder><name>Связь и зарядка телефона</name>
<Placemark><name>ЗАРЯДКА + СВЯЗЬ: АТБ «Артуч»</name><description>Розетки в номерах/столовой, генератор по расписанию (уточнять на месте). Связь TCELL — нестабильная 2G/3G, лучший шанс позвонить до дня 10. Медпункт, склад спасателей.</description><Point><coordinates>68.136646,39.273161,0</coordinates></Point></Placemark>
<Placemark><name>ЗАРЯДКА: чайханы Куликалона (Кулисиёх)</name><description>Сезонные чайханы держат солнечные панели — зарядка обычно за плату, спросить хозяина (по отзывам). Связи нет.</description><Point><coordinates>68.194783,39.258913,0</coordinates></Point></Placemark>
<Placemark><name>ЗАРЯДКА: чайхана у оз. Бибиджонат</name><description>Сезонная; солнечная зарядка за плату — спросить (по отзывам). Связи нет.</description><Point><coordinates>68.196075,39.255329,0</coordinates></Point></Placemark>
<Placemark><name>ЗАРЯДКА: лагерь «Вертикаль-Алаудин»</name><description>Стационарный лагерь у Алауддинских озёр: солнечные батареи/генератор, зарядка за плату (по отзывам). Еда, жильё, радиосвязь в сезон. Мобильной связи нет.</description><Point><coordinates>68.255787,39.239415,0</coordinates></Point></Placemark>
<Placemark><name>ЗАРЯДКА + СВЯЗЬ: с. Газза</name><description>Гостевые дома: сеть 220 В, зарядка без проблем. Мобильная связь TCELL/Megafon в Газзе и долине Арчамайдан (по отзывам). Дорога на Пенджикент.</description><Point><coordinates>68.038276,39.251351,0</coordinates></Point></Placemark>
<Placemark><name>СВЯЗЬ: долина Арчамайдан (сёла)</name><description>По отзывам, TCELL/Megafon ловит в сёлах долины и местами на подходе к Газзе. Между Артучем и Арчамайданом (дни 3–10) связи нет.</description><Point><coordinates>68.060,39.230,0</coordinates></Point></Placemark>
</Folder>
<Folder><name>🎧 Аудиогид — слушать в этих точках</name>
<Placemark><name>🎧 02 Самарканд (отель Sofia)</name><description>Трек 02 «Самарканд». День 1, 06.09 — в городе/в отеле.</description><Point><coordinates>66.957700,39.658500,0</coordinates></Point></Placemark>
<Placemark><name>🎧 03 Граница, Пенджикент, Артуч</name><description>Трек 03. День 2, 07.09 — слушать в Пенджикенте (точка — базар).</description><Point><coordinates>67.609500,39.495400,0</coordinates></Point></Placemark>
<Placemark><name>🎧 14 История и этнография</name><description>Трек 14 — Саразм, согдийцы, ягноби, освоение Фанов. День 2 — Пенджикент/дорога в Артуч.</description><Point><coordinates>67.610500,39.495400,0</coordinates></Point></Placemark>
<Placemark><name>🎧 15 Флора и фауна</name><description>Трек 15 — пояса, арча, теке, сурки, барс, гюрза. Вечер дня 2 в Артуче, перед стартом.</description><Point><coordinates>68.136646,39.273161,0</coordinates></Point></Placemark>
<Placemark><name>🎧 04 Артуч → Куликалон</name><description>Трек 04. Утро дня 3, 08.09 — на выходе из альплагеря.</description><Point><coordinates>68.137600,39.273200,0</coordinates></Point></Placemark>
<Placemark><name>🎧 05 Куликалонский цирк</name><description>Трек 05. День 3 — на берегу Куликалона.</description><Point><coordinates>68.172300,39.255100,0</coordinates></Point></Placemark>
<Placemark><name>🎧 06 Перевал Алаудин</name><description>Трек 06. День 4, 09.09 — у оз. Душаха перед взлётом или на седловине.</description><Point><coordinates>68.227700,39.249100,0</coordinates></Point></Placemark>
<Placemark><name>🎧 07 Алауддинские озёра</name><description>Трек 07. День 4 — на берегу у лагеря.</description><Point><coordinates>68.254700,39.236100,0</coordinates></Point></Placemark>
<Placemark><name>🎧 13 Геология маршрута</name><description>Трек 13 — вы стоите на донной морене. Вечер дня 4, Алауддинские озёра.</description><Point><coordinates>68.255600,39.236600,0</coordinates></Point></Placemark>
<Placemark><name>🎧 08 Мутные озёра</name><description>Трек 08. День 5, 10.09 — у озёр, панорама Замок/Энергия/Чимтарга.</description><Point><coordinates>68.237000,39.196000,0</coordinates></Point></Placemark>
<Placemark><name>🎧 09 Лагерь под Чимтаргой</name><description>Трек 09. День 6, 11.09 — вечером перед отбоем.</description><Point><coordinates>68.214700,39.184900,0</coordinates></Point></Placemark>
<Placemark><name>🎧 10 Перевал Чимтарга</name><description>Трек 10. День 7, 12.09 — на седловине (ветер!) или накануне вечером.</description><Point><coordinates>68.197700,39.189200,0</coordinates></Point></Placemark>
<Placemark><name>🎧 11 Большое Алло</name><description>Трек 11. Дни 7–8 — на берегу в днёвку.</description><Point><coordinates>68.132100,39.210300,0</coordinates></Point></Placemark>
<Placemark><name>🎧 12 Зиндон, Арчамайдан, Газза</name><description>Трек 12. День 10, 15.09 — на спуске по долине или в Газзе.</description><Point><coordinates>68.038300,39.251400,0</coordinates></Point></Placemark>
</Folder></Folder></Document></kml>